[
    {
        "CCSDS_OMM_VERS": "3.0",
        "COMMENT": "GENERATED VIA SPACE-TRACK.ORG API",
        "CREATION_DATE": "2025-03-01T17:52:32",
        "ORIGINATOR": "18 SPCS",
        "OBJECT_NAME": "BEIDOU 3M11",
        "OBJECT_ID": "2018-067A",
        "CENTER_NAME": "EARTH",
        "REF_FRAME": "TEME",
        "TIME_SYSTEM": "UTC",
        "MEAN_ELEMENT_THEORY": "SGP4",
        "EPOCH": "2025-03-01T09:14:41.764704",
        "MEAN_MOTION": "1.86227695",
        "ECCENTRICITY": "0.00081250",
        "INCLINATION": "54.2014",
        "RA_OF_ASC_NODE": "197.0734",
        "ARG_OF_PERICENTER": "36.0447",
        "MEAN_ANOMALY": "323.9618",
        "EPHEMERIS_TYPE": "0",
        "CLASSIFICATION_TYPE": "U",
        "NORAD_CAT_ID": "43602",
        "ELEMENT_SET_NO": "999",
        "REV_AT_EPOCH": "4431",
        "BSTAR": "0.00000000000000",
        "MEAN_MOTION_DOT": "0.00000037",
        "MEAN_MOTION_DDOT": "0.0000000000000",
        "SEMIMAJOR_AXIS": "27906.519",
        "PERIOD": "773.247",
        "APOAPSIS": "21551.058",
        "PERIAPSIS": "21505.710",
        "OBJECT_TYPE": "PAYLOAD",
        "RCS_SIZE": "LARGE",
        "COUNTRY_CODE": "PRC",
        "LAUNCH_DATE": "2018-08-24",
        "SITE": "XSC",
        "DECAY_DATE": null,
        "FILE": "4656182",
        "GP_ID": "282004176",
        "TLE_LINE0": "0 BEIDOU 3M11",
        "TLE_LINE1": "1 43602U 18067A   25060.38520561  .00000037  00000-0  00000-0 0  9990",
        "TLE_LINE2": "2 43602  54.2014 197.0734 0008125  36.0447 323.9618  1.86227695 44314"
    }
]